ONEWEB-0020             
1 45133U 20008C   24209.91976577 -.00000462  00000+0 -13597-2 0  9994
2 45133  87.8962 173.3497 0001909  86.0030 274.1315 13.10370447218079
ONEWEB-0021             
1 45134U 20008D   24209.93470107 -.00000695  00000+0 -20283-2 0  9993
2 45134  87.8971 173.3640 0002111  76.5665 283.5697 13.10374499218386
ONEWEB-0023             
1 45136U 20008F   24209.94715505  .00000012  00000+0 -93582-6 0  9998
2 45136  87.8971 173.3509 0002425  88.0418 272.0987 13.10376711217815
ONEWEB-0024             
1 45137U 20008G   24209.91810954 -.00000386  00000+0 -11417-2 0  9998
2 45137  87.8951 173.3403 0002008  79.9701 280.1652 13.10370059217973
ONEWEB-0025             
1 45138U 20008H   24209.93636408 -.00000522  00000+0 -15322-2 0  9992
2 45138  87.8959 173.3367 0002245  80.4192 279.7189 13.10374669218303
ONEWEB-0026             
1 45139U 20008J   24209.89352447 -.00000415  00000+0 -12076-2 0  9990
2 45139  87.8997 158.2669 0001920  83.0238 277.1109 13.11419352220769
ONEWEB-0028             
1 45140U 20008K   24209.92490232  .00000531  00000+0  14621-2 0  9996
2 45140  87.8992 158.2990 0002679  72.5736 287.5684 13.11418590218281
ONEWEB-0032             
1 45141U 20008L   24209.95131708  .00000149  00000+0  39138-3 0  9996
2 45141  87.8962 173.3805 0002182  78.2915 281.8457 13.10375831218030
